{"version": 0.6, "generator": "Overpass API 0.7.62.5 1bd436f1", "osm3s": {"timestamp_osm_base": "2025-06-05T09:03:02Z", "copyright": "The data included in this document is from www.openstreetmap.org. The data is made available under ODbL."}, "elements": [{"type": "node", "id": 364844476, "lat": 41.3910021, "lon": 2.1256514, "tags": {"addr:city": "Barcelona", "addr:housenumber": "25", "addr:postcode": "08034", "addr:street": "Carrer del Capit\u00e0 Arenas", "name": "Open Cor", "opening_hours": "Sa-Su 06:00-03:00", "shop": "supermarket"}}, {"type": "node", "id": 586547363, "lat": 41.3901775, "lon": 2.1488058, "tags": {"brand": "Dia", "brand:wikidata": "Q925132", "brand:wikipedia": "es:DIA (supermercados)", "name": "Dia", "name:ca": "Dia", "operator": "Distribuidora Internacional de Alimentaci\u00f3n, S.A.", "shop": "supermarket", "website": "https://www.dia.es", "wheelchair": "yes"}}, {"type": "node", "id": 678297032, "lat": 41.4023154, "lon": 2.1452028, "tags": {"brand": "Caprabo", "brand:wikidata": "Q1980781", "brand:wikipedia": "en:Caprabo", "name": "Caprabo", "name:ca": "Caprabo", "shop": "supermarket"}}, {"type": "node", "id": 678297033, "lat": 41.4024683, "lon": 2.1456319, "tags": {"brand": "Consum", "brand:wikidata": "Q8350308", "brand:wikipedia": "es:Consum", "check_date": "2023-04-25", "name": "Consum", "name:ca": "Consum", "operator": "Consum", "shop": "supermarket", "website": "https://www.consum.es/"}}, {"type": "node", "id": 841867160, "lat": 41.3952853, "lon": 2.1242464, "tags": {"brand": "Caprabo", "brand:wikidata": "Q1980781", "brand:wikipedia": "en:Caprabo", "name": "Caprabo", "name:ca": "Caprabo", "shop": "supermarket"}}, {"type": "node", "id": 1036552125, "lat": 41.3861533, "lon": 2.144398, "tags": {"brand": "Dia", "brand:wikidata": "Q925132", "brand:wikipedia": "es:DIA (supermercados)", "name": "Dia", "name:ca": "Dia", "operator": "DIA", "shop": "supermarket"}}, {"type": "node", "id": 1036552918, "lat": 41.3869796, "lon": 2.1442296, "tags": {"addr:city": "Barcelona", "addr:housenumber": "53-61", "addr:street": "Carrer de Par\u00eds", "brand": "Consum", "brand:wikidata": "Q8350308", "brand:wikipedia": "es:Consum", "name": "Consum", "name:ca": "Consum", "operator": "Consum", "shop": "supermarket", "website": "https://www.consum.es/"}}, {"type": "node", "id": 1198016302, "lat": 41.3918433, "lon": 2.152291, "tags": {"brand": "Spar", "brand:wikidata": "Q610492", "brand:wikipedia": "es:SPAR", "name": "Spar", "opening_hours": "Mo-Sa 09:00-21:30+; PH,Su off", "shop": "supermarket"}}, {"type": "node", "id": 1224389887, "lat": 41.4114593, "lon": 2.1420651, "tags": {"addr:housenumber": "179-181", "addr:postcode": "08023", "addr:street": "Avinguda de la Rep\u00fablica Argentina", "name": "Jespac", "opening_hours": "Mo-Sa 09:00-21:00", "shop": "supermarket"}}, {"type": "node", "id": 1374764739, "lat": 41.3932977, "lon": 2.1249657, "tags": {"brand": "Bonpreu", "brand:wikidata": "Q11924747", "brand:wikipedia": "ca:Grup Bon Preu", "name": "Bonpreu", "name:ca": "Bonpreu", "shop": "supermarket", "source": "Bing"}}, {"type": "node", "id": 1377824812, "lat": 41.3947291, "lon": 2.133976, "tags": {"name": "OpenCor", "shop": "supermarket"}}, {"type": "node", "id": 1457780105, "lat": 41.4012482, "lon": 2.151385, "tags": {"brand": "Bon Area", "brand:wikidata": "Q11924743", "brand:wikipedia": "ca:Grup Alimentari Guissona", "name": "Bon Area", "opening_hours": "Mo-Sa 09:00-21:00; Su 10:00-15:00", "shop": "supermarket"}}, {"type": "node", "id": 1659740698, "lat": 41.3955415, "lon": 2.1423536, "tags": {"shop": "supermarket"}}, {"type": "node", "id": 1755456235, "lat": 41.4083034, "lon": 2.1472479, "tags": {"addr:housenumber": "31", "addr:street": "Avinguda de la Rep\u00fablica Argentina", "brand": "Dia", "brand:wikidata": "Q925132", "brand:wikipedia": "es:DIA (supermercados)", "name": "Dia", "name:ca": "Dia", "operator": "Distribuidora Internacional de Alimentaci\u00f3n, S.A.", "shop": "supermarket", "website": "https://www.dia.es"}}, {"type": "node", "id": 1755464544, "lat": 41.4095619, "lon": 2.1512953, "tags": {"addr:housenumber": "237", "addr:street": "Carrer de Verdi", "brand": "Dia", "brand:wikidata": "Q925132", "brand:wikipedia": "es:DIA (supermercados)", "name": "Dia", "name:ca": "Dia", "operator": "Distribuidora Internacional de Alimentaci\u00f3n, S.A.", "shop": "supermarket", "website": "https://www.dia.es"}}, {"type": "node", "id": 1755468318, "lat": 41.402391, "lon": 2.1482945, "tags": {"addr:housenumber": "28-32", "addr:street": "Carrer de Guillem Tell", "brand": "Dia", "brand:wikidata": "Q925132", "brand:wikipedia": "es:DIA (supermercados)", "name": "Dia", "name:ca": "Dia", "operator": "Distribuidora Internacional de Alimentaci\u00f3n, S.A.", "shop": "supermarket", "website": "https://www.dia.es"}}, {"type": "node", "id": 1755468911, "lat": 41.4064092, "lon": 2.1371428, "tags": {"addr:housenumber": "21", "addr:street": "Carrer de Teodora Lamadrid", "brand": "Plusfresc", "brand:wikidata": "Q111373081", "name": "Plusfresc", "name:ca": "Plusfresc", "operator": "Supsa Supermercats Pujol, S.L.", "phone": "+34934177384", "shop": "supermarket", "website": "https://www.plusfresc.cat/"}}, {"type": "node", "id": 1755469304, "lat": 41.4117734, "lon": 2.1388768, "tags": {"addr:housenumber": "20", "addr:street": "Carrer de Craywinckel", "brand": "Dia", "brand:wikidata": "Q925132", "brand:wikipedia": "es:DIA (supermercados)", "name": "Dia", "name:ca": "Dia", "opening_hours": "Mo-Sa 09:00-21:00; Su 09:00-14:00", "operator": "Distribuidora Internacional de Alimentaci\u00f3n, S.A.", "shop": "supermarket", "website": "https://www.dia.es"}}, {"type": "node", "id": 1808937501, "lat": 41.3944077, "lon": 2.1273963, "tags": {"brand": "Caprabo", "brand:wikidata": "Q1980781", "brand:wikipedia": "en:Caprabo", "name": "Caprabo", "name:ca": "Caprabo", "shop": "supermarket"}}, {"type": "node", "id": 1997866789, "lat": 41.4044821, "lon": 2.1372386, "tags": {"name": "Jespac", "shop": "supermarket", "wheelchair": "yes"}}, {"type": "node", "id": 2034780552, "lat": 41.4067026, "lon": 2.1516985, "tags": {"name": "Supermercat", "name:ca": "Supermercat", "shop": "supermarket", "source": "survey"}}, {"type": "node", "id": 2058694706, "lat": 41.3958643, "lon": 2.1504147, "tags": {"brand": "Mercadona", "brand:wikidata": "Q377705", "brand:wikipedia": "es:Mercadona", "name": "Mercadona", "name:ca": "Mercadona", "opening_hours": "Mo-Sa 09:00-21:00", "shop": "supermarket", "website": "https://www.mercadona.es", "wheelchair": "yes"}}, {"type": "node", "id": 2058694722, "lat": 41.3978028, "lon": 2.1487988, "tags": {"addr:housenumber": "74-70", "addr:postcode": "08006", "addr:street": "Carrer de Mari\u00e0 Cub\u00ed", "brand": "Consum", "brand:wikidata": "Q8350308", "brand:wikipedia": "es:Consum", "name": "Consum", "name:ca": "Consum", "operator": "Consum", "shop": "supermarket", "website": "https://www.consum.es/", "wheelchair": "limited"}}, {"type": "node", "id": 2175616318, "lat": 41.3873877, "lon": 2.1137462, "tags": {"addr:city": "Barcelona", "addr:housenumber": "16", "addr:postcode": "08034", "addr:street": "Carrer de Jordi Girona", "contact:facebook": "https://www.facebook.com/pages/category/Grocery-Store/BADULAQUE-280071858690848/", "name": "Badul-a-que", "opening_hours": "Mo-Su 09:00-22:00", "phone": "+34 931 77 76 19", "shop": "supermarket"}}, {"type": "node", "id": 2175616321, "lat": 41.3867813, "lon": 2.1125752, "tags": {"name": "Alimentaci\u00f3 Pons", "shop": "supermarket"}}, {"type": "node", "id": 2175616322, "lat": 41.3864706, "lon": 2.1133869, "tags": {"brand": "Condis", "brand:wikidata": "Q57417581", "name": "Condis", "operator": "Condis", "shop": "supermarket"}}, {"type": "node", "id": 2322288572, "lat": 41.3927327, "lon": 2.1511903, "tags": {"addr:city": "Barcelona", "addr:housenumber": "187", "addr:postcode": "08036", "addr:street": "Carrer de Muntaner", "name": "Jespac Supermercats", "opening_hours": "Mo-Sa 09:00-21:00+; PH,Su off", "operator": "Jespac", "shop": "supermarket"}}, {"type": "node", "id": 2383090668, "lat": 41.4179507, "lon": 2.1490232, "tags": {"addr:housenumber": "66", "addr:postcode": "08023", "addr:street": "Carrer de M\u00f3ra d'Ebre", "name": "Super Vallcarca", "shop": "supermarket"}}, {"type": "node", "id": 2492742883, "lat": 41.3864764, "lon": 2.1507542, "tags": {"brand": "Caprabo", "brand:wikidata": "Q1980781", "brand:wikipedia": "en:Caprabo", "name": "Caprabo", "name:ca": "Caprabo", "opening_hours": "Mo-Sa 09:00-21:00", "operator": "Eroski", "shop": "supermarket"}}, {"type": "node", "id": 2493122614, "lat": 41.4106971, "lon": 2.1467858, "tags": {"brand": "Suma", "brand:wikidata": "Q58012362", "check_date:opening_hours": "2023-04-19", "name": "Suma", "name:ca": "Suma", "opening_hours:signed": "no", "shop": "supermarket"}}, {"type": "node", "id": 2529449464, "lat": 41.4116901, "lon": 2.1387655, "tags": {"addr:city": "Barcelona", "addr:housenumber": "24", "addr:postcode": "08022", "addr:street": "Carrer de Craywinckel", "name": "Ametller Origen", "opening_hours": "Sep-Feb: Mo-Sa 09:00-21:00; Mar-Aug: Mo-Sa 09:00-21:30", "shop": "supermarket"}}, {"type": "node", "id": 2669068590, "lat": 41.3876396, "lon": 2.1465409, "tags": {"addr:city": "Barcelona", "addr:housenumber": "275-285", "addr:street": "Carrer de Viladomat", "brand": "Mercadona", "brand:wikidata": "Q377705", "brand:wikipedia": "es:Mercadona", "name": "Mercadona", "name:ca": "Mercadona", "shop": "supermarket", "website": "https://www.mercadona.es"}}, {"type": "node", "id": 2745572511, "lat": 41.3974037, "lon": 2.1217544, "tags": {"brand": "Bon Area", "brand:wikidata": "Q11924743", "brand:wikipedia": "ca:Grup Alimentari Guissona", "name": "Bon Area", "shop": "supermarket", "wheelchair": "yes"}}, {"type": "node", "id": 2796748763, "lat": 41.3910206, "lon": 2.1516647, "tags": {"addr:city": "Barcelona", "addr:housenumber": "170", "addr:postcode": "08036", "addr:street": "Carrer de Casanova", "name": "Alimentaci\u00f3 La Torra", "name:ca": "Alimentaci\u00f3 La Torra", "phone": "+34 93 430 55 21", "shop": "supermarket", "wheelchair": "yes"}}, {"type": "node", "id": 2871620599, "lat": 41.3981285, "lon": 2.1460844, "tags": {"addr:city": "Barcelona", "addr:housenumber": "88-86", "addr:postcode": "08006", "addr:street": "Carrer dels Madrazo", "brand": "Condis", "brand:wikidata": "Q57417581", "name": "Condis", "operator": "Condis", "shop": "supermarket", "wheelchair": "yes"}}, {"type": "node", "id": 2871620600, "lat": 41.3971017, "lon": 2.144769, "tags": {"addr:city": "Barcelona", "addr:housenumber": "102", "addr:postcode": "08006", "addr:street": "Carrer dels Madrazo", "brand": "Caprabo", "brand:wikidata": "Q1980781", "brand:wikipedia": "en:Caprabo", "name": "Caprabo", "name:ca": "Caprabo", "shop": "supermarket", "wheelchair": "yes"}}, {"type": "node", "id": 3317171463, "lat": 41.4124231, "lon": 2.1382004, "tags": {"brand": "Condis", "brand:wikidata": "Q57417581", "name": "Condis", "opening_hours": "Mo-Sa 09:00-21:30", "operator": "Condis", "shop": "supermarket"}}, {"type": "node", "id": 3317172306, "lat": 41.4129421, "lon": 2.1390855, "tags": {"brand": "Condis", "brand:wikidata": "Q57417581", "name": "Condis", "operator": "Condis", "shop": "supermarket", "wheelchair": "yes"}}, {"type": "node", "id": 4109237583, "lat": 41.3896311, "lon": 2.1438878, "tags": {"brand": "Caprabo", "brand:wikidata": "Q1980781", "brand:wikipedia": "en:Caprabo", "name": "Caprabo", "name:ca": "Caprabo", "shop": "supermarket"}}, {"type": "node", "id": 4380647080, "lat": 41.4208674, "lon": 2.149578, "tags": {"brand": "Bon Area", "brand:wikidata": "Q11924743", "brand:wikipedia": "ca:Grup Alimentari Guissona", "name": "Bon Area", "shop": "supermarket"}}, {"type": "node", "id": 4380647081, "lat": 41.421064, "lon": 2.1497832, "tags": {"brand": "Dia", "brand:wikidata": "Q925132", "brand:wikipedia": "es:DIA (supermercados)", "name": "Dia", "name:ca": "Dia", "operator": "Distribuidora Internacional de Alimentaci\u00f3n, S.A.", "shop": "supermarket", "website": "https://www.dia.es"}}, {"type": "node", "id": 4440634565, "lat": 41.3971459, "lon": 2.1514379, "tags": {"brand": "Caprabo", "brand:wikidata": "Q1980781", "brand:wikipedia": "en:Caprabo", "name": "Caprabo", "name:ca": "Caprabo", "opening_hours": "Mo-Sa 09:00-21:00", "shop": "supermarket", "wheelchair": "yes"}}, {"type": "node", "id": 4461837773, "lat": 41.4116126, "lon": 2.1408942, "tags": {"brand": "Bon\u00c0rea", "brand:wikidata": "Q11924743", "brand:wikipedia": "ca:Grup Alimentari Guissona", "name": "Bon\u00c0rea", "opening_hours": "Mo-Sa 09:00-21:00; Su 09:30-14:00", "ref": "42393", "shop": "supermarket"}}, {"type": "node", "id": 4472942328, "lat": 41.4075811, "lon": 2.1343971, "tags": {"addr:housenumber": "8", "addr:street": "Passeig de Sant Gervasi", "brand": "Sorli Discau", "brand:wikidata": "Q21034458", "name": "Sorli Discau", "opening_hours": "Mo-Sa 09:00-21:00; PH closed", "shop": "supermarket"}}, {"type": "node", "id": 4474981247, "lat": 41.4080919, "lon": 2.1366124, "tags": {"brand": "Caprabo", "brand:wikidata": "Q1980781", "brand:wikipedia": "en:Caprabo", "name": "Caprabo", "name:ca": "Caprabo", "shop": "supermarket"}}, {"type": "node", "id": 4578322589, "lat": 41.4061984, "lon": 2.1349904, "tags": {"addr:housenumber": "103", "addr:street": "Carrer de Sant Gervasi de Cassoles", "brand": "Mercadona", "brand:wikidata": "Q377705", "brand:wikipedia": "es:Mercadona", "name": "Mercadona", "name:ca": "Mercadona", "opening_hours": "Mo-Sa 09:15-21:15", "shop": "supermarket", "website": "https://www.mercadona.es"}}, {"type": "node", "id": 4637468756, "lat": 41.4049674, "lon": 2.1328276, "tags": {"addr:city": "Barcelona", "addr:housenumber": "6", "addr:postcode": "08022", "addr:street": "Carrer de Bigai", "brand": "Caprabo", "brand:wikidata": "Q1980781", "brand:wikipedia": "en:Caprabo", "name": "Caprabo", "name:ca": "Caprabo", "opening_hours": "Mo-Sa 09:00-21:00", "organic": "yes", "shop": "supermarket", "website": "https://www.caprabo.com"}}, {"type": "node", "id": 4637468757, "lat": 41.4049079, "lon": 2.1327715, "tags": {"addr:city": "Barcelona", "addr:housenumber": "4", "addr:postcode": "08022", "addr:street": "Carrer de Bigai", "brand": "Bon\u00c0rea", "brand:wikidata": "Q11924743", "brand:wikipedia": "ca:Grup Alimentari Guissona", "name": "Bon\u00c0rea", "opening_hours": "Mo-Fr 09:00-20:30; Sa 09:00-14:30", "organic": "no", "phone": "+34932541795", "ref": "42534", "shop": "supermarket", "website": "https://www.bonarea.com"}}, {"type": "node", "id": 4680779998, "lat": 41.3955203, "lon": 2.1249977, "tags": {"addr:city": "Barcelona", "addr:housenumber": "4", "addr:street": "Passatge de Senillosa", "check_date": "2024-10-13", "name": "Veritas", "opening_hours": "Mo-Sa 09:00-21:00", "organic": "only", "phone": "+34932058020", "shop": "supermarket", "source": "http://www.veritas.es/tienda/senillosa/", "website": "https://www.veritas.es/"}}, {"type": "node", "id": 4680779999, "lat": 41.3992646, "lon": 2.1514522, "tags": {"addr:city": "Barcelona", "addr:housenumber": "7-9", "addr:street": "Carrer de Mari\u00e0 Cub\u00ed", "name": "Veritas", "opening_hours": "Mo-Sa 09:00-21:00", "organic": "only", "phone": "+34932182383", "shop": "supermarket", "source": "http://www.veritas.es/tienda/maria-cubi/", "website": "https://www.veritas.es/"}}, {"type": "node", "id": 4696244802, "lat": 41.3903004, "lon": 2.1459307, "tags": {"addr:city": "Barcelona", "addr:housenumber": "12", "addr:postcode": "08029", "addr:street": "Avinguda de Sarri\u00e0", "brand": "ALDI", "brand:wikidata": "Q41171373", "name": "ALDI", "opening_hours": "Mo-Sa 09:15-21:15", "organic": "yes", "phone": "+34 900 902 466", "shop": "supermarket", "website": "https://www.aldi.es"}}, {"type": "node", "id": 4711638427, "lat": 41.4029127, "lon": 2.1457466, "tags": {"name": "Food Lion", "shop": "supermarket"}}, {"type": "node", "id": 4738544733, "lat": 41.3860658, "lon": 2.1334388, "tags": {"addr:city": "Barcelona", "addr:housenumber": "271", "addr:street": "Travessera de les Corts", "name": "Veritas", "opening_hours": "Mo-Sa 09:15-21:15", "organic": "only", "phone": "+34934947593", "shop": "supermarket", "website": "https://www.veritas.es/"}}, {"type": "node", "id": 4778618050, "lat": 41.3980156, "lon": 2.1341504, "tags": {"addr:city": "Barcelona", "addr:housenumber": "256", "addr:postcode": "08017", "addr:street": "Via Augusta", "level": "-1", "name": "Ametller Origen", "name:ca": "Ametller Origen", "name:es": "Ametller Origen", "shop": "supermarket"}}, {"type": "node", "id": 4951738421, "lat": 41.4023575, "lon": 2.1386801, "tags": {"brand": "Eroski", "brand:wikidata": "Q1361349", "brand:wikipedia": "en:Eroski", "name": "Eroski", "name:ca": "Eroski", "shop": "supermarket"}}, {"type": "node", "id": 5045436421, "lat": 41.4086437, "lon": 2.1473386, "tags": {"addr:housenumber": "30,32", "addr:street": "Avinguda de la Rep\u00fablica Argentina", "brand": "Caprabo", "brand:wikidata": "Q1980781", "brand:wikipedia": "en:Caprabo", "name": "Caprabo", "name:ca": "Caprabo", "shop": "supermarket"}}, {"type": "node", "id": 5078481823, "lat": 41.4036156, "lon": 2.1284648, "tags": {"brand": "Condis", "brand:wikidata": "Q57417581", "name": "Condis", "shop": "supermarket"}}, {"type": "node", "id": 5145974548, "lat": 41.4132697, "lon": 2.104669, "tags": {"name": "Crespo", "shop": "supermarket"}}, {"type": "node", "id": 5204555590, "lat": 41.403431, "lon": 2.1334164, "tags": {"brand": "Dia", "brand:wikidata": "Q925132", "brand:wikipedia": "es:DIA (supermercados)", "name": "Dia", "name:ca": "Dia", "operator": "Distribuidora Internacional de Alimentaci\u00f3n, S.A.", "shop": "supermarket", "website": "https://www.dia.es"}}, {"type": "node", "id": 5204558864, "lat": 41.4038372, "lon": 2.1334124, "tags": {"name": "Coaliment", "opening_hours": "Mo-Su 08:00-02:00", "shop": "supermarket"}}, {"type": "node", "id": 5318409429, "lat": 41.3917392, "lon": 2.1437201, "tags": {"name": "Supermercat", "name:ca": "Supermercat", "opening_hours": "24/7", "shop": "supermarket", "wheelchair": "yes"}}, {"type": "node", "id": 5864094592, "lat": 41.3920837, "lon": 2.1451672, "tags": {"addr:postcode": "08029", "brand": "Lidl", "brand:website": "https://www.lidl.es", "brand:wikidata": "Q151954", "brand:wikipedia": "en:Lidl", "name": "Lidl", "name:en": "Lidl", "name:es": "Lidl", "opening_hours": "Mo-Sa 09:00-21:00", "shop": "supermarket", "wheelchair": "yes"}}, {"type": "node", "id": 5899813187, "lat": 41.4024482, "lon": 2.1373687, "tags": {"brand": "Suma", "brand:wikidata": "Q58012362", "name": "Suma", "name:ca": "Suma", "shop": "supermarket"}}, {"type": "node", "id": 5909777354, "lat": 41.391962, "lon": 2.1521447, "tags": {"addr:city": "Barcelona", "addr:housenumber": "177", "addr:postcode": "08036", "addr:street": "Carrer de Muntaner", "diet:gluten_free": "yes", "name": "OBBIO", "opening_hours": "Mo-Sa 09:00-21:00", "organic": "yes", "phone": "+34 93 159 39 69", "shop": "supermarket", "website": "https://obbiofood.com/"}}, {"type": "node", "id": 5914744886, "lat": 41.3903769, "lon": 2.1501894, "tags": {"name": "Con pan", "shop": "supermarket"}}, {"type": "node", "id": 5914744889, "lat": 41.3912508, "lon": 2.1490156, "tags": {"addr:housenumber": "194", "addr:street": "Carrer de Villarroel", "brand": "Caprabo", "brand:wikidata": "Q1980781", "brand:wikipedia": "en:Caprabo", "name": "Caprabo", "name:ca": "Caprabo", "shop": "supermarket"}}, {"type": "node", "id": 5940979686, "lat": 41.3990917, "lon": 2.1220556, "tags": {"addr:city": "Barcelona", "addr:housenumber": "85", "addr:street": "Carrer Major de Sarri\u00e0", "name": "Superservis", "shop": "supermarket"}}, {"type": "node", "id": 5940979886, "lat": 41.4007927, "lon": 2.1206843, "tags": {"addr:housenumber": "148", "addr:street": "Carrer Major de Sarri\u00e0", "name": "Supermercat", "name:ca": "Supermercat", "shop": "supermarket"}}, {"type": "node", "id": 5941211012, "lat": 41.4123752, "lon": 2.1468551, "tags": {"brand": "Caprabo", "brand:wikidata": "Q1980781", "brand:wikipedia": "en:Caprabo", "check_date": "2023-10-10", "name": "Caprabo", "name:ca": "Caprabo", "opening_hours": "Mo-Sa 08:30-21:00; Su 09:00-21:00", "payment:mastercard": "yes", "payment:visa": "yes", "shop": "supermarket"}}, {"type": "node", "id": 5972455502, "lat": 41.397182, "lon": 2.1520791, "tags": {"addr:city": "Barcelona", "addr:housenumber": "197", "addr:postcode": "08006", "addr:street": "Carrer de Balmes", "comment": "Japanese food only", "name": "Tokyo-Ya", "opening_hours": "Mo-Sa 10:30-20:00", "shop": "supermarket"}}, {"type": "node", "id": 5994481886, "lat": 41.3858651, "lon": 2.1331163, "tags": {"addr:housenumber": "265-267", "addr:street": "Travessera de les Corts", "name": "Ametller Origen", "name:ca": "Ametller Origen", "shop": "supermarket"}}, {"type": "node", "id": 6100104221, "lat": 41.3910104, "lon": 2.1210067}, {"type": "node", "id": 6100104265, "lat": 41.3912419, "lon": 2.1215085}, {"type": "node", "id": 6100104268, "lat": 41.3911098, "lon": 2.1209637}, {"type": "node", "id": 6100104270, "lat": 41.3911424, "lon": 2.1215528}, {"type": "node", "id": 6104559898, "lat": 41.3870417, "lon": 2.1371478, "tags": {"addr:city": "Barcelona", "addr:country": "ES", "addr:housenumber": "128", "addr:postcode": "08029", "addr:street": "Carrer de Nicaragua", "brand": "Dia Market", "brand:wikidata": "Q925132", "brand:wikipedia": "es:Supermercados DIA", "contact:phone": "+34 912170453", "name": "Dia Market", "opening_hours": "Mo-Fr 09:00-21:00; Sa 09:00-14:00, 17:00-20:30", "payment:mastercard": "yes", "payment:visa": "yes", "shop": "supermarket"}}, {"type": "node", "id": 6126216586, "lat": 41.4081939, "lon": 2.1518598, "tags": {"brand": "Condis", "brand:wikidata": "Q57417581", "name": "Condis", "shop": "supermarket"}}, {"type": "node", "id": 6133090389, "lat": 41.4029458, "lon": 2.1443872, "tags": {"addr:housenumber": "322", "addr:street": "Carrer de Balmes", "name": "Taste of America", "shop": "supermarket"}}, {"type": "node", "id": 6133116687, "lat": 41.40341, "lon": 2.1485653, "tags": {"addr:housenumber": "23", "addr:street": "Carrer de Vallirana", "name": "Superservis", "shop": "supermarket"}}, {"type": "node", "id": 6194537400, "lat": 41.3895766, "lon": 2.1508179, "tags": {"brand": "Suma", "brand:wikidata": "Q58012362", "delivery": "yes", "name": "Suma", "name:ca": "Suma", "opening_hours": "Mo-Sa 09:00-23:00+; Su 10:00-23:00+", "shop": "supermarket"}}, {"type": "node", "id": 6209019704, "lat": 41.385669, "lon": 2.1373907, "tags": {"addr:city": "Barcelona", "addr:country": "ES", "addr:housenumber": "88", "addr:postcode": "08029", "addr:street": "Carrer de Num\u00e0ncia", "brand": "ALDI", "brand:website": "https://www.aldi.es", "brand:wikidata": "Q41171373", "brand:wikipedia": "en:Aldi", "contact:phone": "+34 900902466", "contact:website": "https://aldi.es/", "name": "ALDI", "opening_hours": "Mo-Sa 09:00-21:30; Su 12:00-20:00", "shop": "supermarket", "wheelchair": "yes"}}, {"type": "node", "id": 6230398290, "lat": 41.387584, "lon": 2.1366856, "tags": {"addr:city": "Barcelona", "addr:country": "ES", "addr:housenumber": "294", "addr:postcode": "08029", "addr:street": "Travessera de les Corts", "branch": "351", "brand": "Bon Area", "brand:wikidata": "Q11924743", "brand:wikipedia": "ca:Grup Alimentari Guissona", "contact:phone": "+34 934197642", "contact:website": "https://www.bonarea.com/", "name": "Bon Area", "opening_hours": "Mo-Sa 09:00-21:00; Su 10:00-14:00", "payment:mastercard": "yes", "payment:visa": "yes", "shop": "supermarket"}}, {"type": "node", "id": 6356110689, "lat": 41.4097222, "lon": 2.1373513, "tags": {"name": "Cindus Expres", "shop": "supermarket"}}, {"type": "node", "id": 6389455162, "lat": 41.4030573, "lon": 2.1522126, "tags": {"addr:city": "Barcelona", "addr:housenumber": "167", "addr:postcode": "08012", "addr:street": "Carrer Gran de Gr\u00e0cia", "name": "Sorli Discau", "shop": "supermarket", "website": "https://www.sorli.com"}}, {"type": "node", "id": 6437025976, "lat": 41.3869485, "lon": 2.1297451, "tags": {"brand": "Condis", "brand:wikidata": "Q57417581", "name": "Condis", "operator": "Condis", "shop": "supermarket"}}, {"type": "node", "id": 6477255756, "lat": 41.3974748, "lon": 2.1479166, "tags": {"brand": "Suma", "brand:wikidata": "Q58012362", "name": "Suma", "name:ca": "Suma", "shop": "supermarket"}}, {"type": "node", "id": 6477276660, "lat": 41.3984575, "lon": 2.1418123, "tags": {"brand": "Plusfresc", "brand:wikidata": "Q111373081", "name": "Plusfresc", "name:ca": "Plusfresc", "shop": "supermarket", "website": "https://www.plusfresc.cat/"}}, {"type": "node", "id": 6579588787, "lat": 41.39021, "lon": 2.1240033, "tags": {"brand": "Condis", "brand:wikidata": "Q57417581", "name": "Condis", "shop": "supermarket"}}, {"type": "node", "id": 6591371585, "lat": 41.4044022, "lon": 2.1502091, "tags": {"name": "Rapid", "shop": "supermarket"}}, {"type": "node", "id": 7431790451, "lat": 41.3897506, "lon": 2.1205502, "tags": {"addr:city": "Barcelona", "addr:housenumber": "6", "addr:postcode": "08034", "addr:street": "Passeig de Manuel Girona", "name": "Kachafruit", "opening_hours": "Mo-Su 09:00-21:00", "shop": "supermarket"}}, {"type": "node", "id": 8013208796, "lat": 41.4091288, "lon": 2.1485774, "tags": {"brand": "Consum", "brand:wikidata": "Q8350308", "brand:wikipedia": "es:Consum", "check_date": "2025-05-18", "check_date:opening_hours": "2025-05-18", "name": "Consum", "name:ca": "Consum", "opening_hours": "Mo-Sa 09:00-21:00", "payment:cash": "yes", "payment:credit_cards": "yes", "shop": "supermarket"}}, {"type": "node", "id": 8320711544, "lat": 41.4215763, "lon": 2.1460169, "tags": {"shop": "supermarket"}}, {"type": "node", "id": 8418431918, "lat": 41.3997802, "lon": 2.1504647, "tags": {"brand": "Dia", "brand:wikidata": "Q925132", "brand:wikipedia": "es:DIA (supermercados)", "name": "Dia", "name:ca": "Dia", "opening_hours": "Mo-Fr 09:00-21:00; Sa 09:00-14:00,17:00-21:00; Su 09:30-14:30", "shop": "supermarket", "wheelchair": "yes"}}, {"type": "node", "id": 8605908205, "lat": 41.403631, "lon": 2.1368219, "tags": {"addr:housenumber": "515", "addr:postcode": "08022", "addr:street": "Carrer de Muntaner", "name": "Casa Ruiz Granel", "opening_hours": "Mo-Sa 10:00-14:00,16:30-20:30", "payment:cash": "yes", "payment:credit_cards": "yes", "phone": "+34 82 49 24", "shop": "supermarket", "website": "https://casaruizgranel.com", "wheelchair": "yes"}}, {"type": "node", "id": 8614587064, "lat": 41.402095, "lon": 2.1505135, "tags": {"addr:city": "Barcelona", "addr:housenumber": "13", "addr:postcode": "08012", "addr:street": "Avinguda de la Riera de Cassoles", "name": "Handsel & Granel", "opening_hours:covid19": "Mo-Fr 10:30-13:30, 17:30-20:30 Sa 10:30-14:00", "operator": "N\u00faria Serra", "phone": "+34 677 19 20 14", "shop": "supermarket"}}, {"type": "node", "id": 8615401097, "lat": 41.4043461, "lon": 2.150225, "tags": {"addr:city": "Barcelona", "addr:housenumber": "37", "addr:postcode": "08012", "addr:street": "Avinguda de la Riera de Cassoles", "name": "Colibr\u00ed a granel", "opening_hours": "Mo-Fr 10:00-14:30,17:00-20:30; Sa 10:00-14:00", "payment:cash": "yes", "payment:credit_cards": "yes", "phone": "+34 635 18 18 72", "shop": "supermarket", "website": "https://colibriagranel.com"}}, {"type": "node", "id": 8616851424, "lat": 41.3962605, "lon": 2.1227944, "tags": {"addr:city": "Barcelona", "addr:housenumber": "2", "addr:postcode": "08034", "addr:street": "Carrer dels Caponata", "name": "Refill & Zero", "opening_hours": "Mo-Fr 10:00-14:00,17:00-20:00; Sa 10:00-14:00", "payment:cash": "yes", "payment:credit_cards": "yes", "phone": "+34 93 510 73 73", "shop": "supermarket", "website": "https://refillzero.com"}}, {"type": "node", "id": 8742850600, "lat": 41.4023957, "lon": 2.1354917, "tags": {"brand": "Caprabo", "brand:wikidata": "Q1980781", "name": "Caprabo", "name:ca": "Caprabo", "shop": "supermarket"}}, {"type": "node", "id": 9138108917, "lat": 41.3859747, "lon": 2.1387727, "tags": {"brand": "Bonpreu", "brand:wikidata": "Q11924747", "brand:wikipedia": "ca:Grup Bon Preu", "name": "Bonpreu", "name:ca": "Bonpreu", "shop": "supermarket"}}, {"type": "node", "id": 9235066006, "lat": 41.3948658, "lon": 2.1478583, "tags": {"name": "Coaliment", "opening_hours": "24/7", "shop": "supermarket"}}, {"type": "node", "id": 9574771756, "lat": 41.4044669, "lon": 2.1441289, "tags": {"addr:city": "Barcelona", "addr:housenumber": "88", "addr:postcode": "08006", "addr:street": "Carrer de P\u00e0dua", "name": "Coaliment Supermercats", "shop": "supermarket"}}, {"type": "node", "id": 9759334870, "lat": 41.3883224, "lon": 2.1441256, "tags": {"addr:city": "Barcelona", "addr:housenumber": "12", "addr:postcode": "08029", "addr:street": "Carrer de Londres", "brand": "Condis", "brand:wikidata": "Q57417581", "name": "Condis", "shop": "supermarket"}}, {"type": "node", "id": 9804605331, "lat": 41.4059341, "lon": 2.1515968, "tags": {"addr:city": "Barcelona", "check_date": "2023-08-24", "dog": "no", "name": "Supermercat", "name:ca": "Supermercat", "payment:cash": "yes", "payment:maestro": "yes", "payment:mastercard": "yes", "shop": "supermarket", "wheelchair": "yes"}}, {"type": "node", "id": 9806608718, "lat": 41.3897873, "lon": 2.1431567, "tags": {"addr:housenumber": "129", "addr:street": "Avinguda de Josep Tarradellas", "name": "Ametller Origen", "name:ca": "Ametller", "opening_hours": "Mo-Sa 10:00-21:00", "organic": "yes", "payment:cash": "yes", "payment:coins": "yes", "payment:contactless": "yes", "payment:credit_cards": "yes", "payment:debit_cards": "yes", "payment:mastercard": "yes", "payment:visa": "yes", "shop": "supermarket", "toilets": "no"}}, {"type": "node", "id": 9808545118, "lat": 41.390624, "lon": 2.1475215, "tags": {"name:en": "Condis", "opening_hours": "Mo-Fr 08:00-00:00; Sa-Su 09:00-01:00", "shop": "supermarket"}}, {"type": "node", "id": 9814908617, "lat": 41.3939155, "lon": 2.1463037, "tags": {"shop": "supermarket"}}, {"type": "node", "id": 9825433418, "lat": 41.3937644, "lon": 2.1461251, "tags": {"name": "PROP", "name:ca": "PROP", "shop": "supermarket"}}, {"type": "node", "id": 9846873721, "lat": 41.3959984, "lon": 2.1467646, "tags": {"shop": "supermarket"}}, {"type": "node", "id": 9846873819, "lat": 41.3939451, "lon": 2.1463433, "tags": {"name": "El graner de Sant Gervasi", "shop": "supermarket"}}, {"type": "node", "id": 9846884617, "lat": 41.4008729, "lon": 2.140303, "tags": {"brand": "Condis", "brand:wikidata": "Q57417581", "name": "Condis", "name:en": "Condis", "shop": "supermarket"}}, {"type": "node", "id": 10018008969, "lat": 41.4135583, "lon": 2.1449091, "tags": {"brand": "Condis", "brand:wikidata": "Q57417581", "name": "Condis", "operator": "Condis", "shop": "supermarket"}}, {"type": "node", "id": 10134925728, "lat": 41.3966927, "lon": 2.14819, "tags": {"addr:housenumber": "22", "addr:street": "Carrer de l'Avenir", "name": "Kosher Babait", "shop": "supermarket"}}, {"type": "node", "id": 10264882427, "lat": 41.3977748, "lon": 2.122234, "tags": {"addr:housenumber": "24", "addr:postcode": "08034", "addr:street": "Carrer del Pedr\u00f3 de la Creu", "internet_access": "wlan", "name": "Organic Market", "opening_hours": "Mo-Fr 08:00-21:00; Sa-Su 09:00-21:00", "shop": "supermarket", "website": "https://www.tribuwoki.com/supermercado-bio/"}}, {"type": "node", "id": 10839633326, "lat": 41.4088013, "lon": 2.1489709, "tags": {"check_date": "2023-04-25", "shop": "supermarket"}}, {"type": "node", "id": 10839633328, "lat": 41.4115631, "lon": 2.1381362, "tags": {"check_date": "2023-04-25", "name": "Veritas", "shop": "supermarket"}}, {"type": "node", "id": 10858988549, "lat": 41.3956586, "lon": 2.1476435, "tags": {"addr:housenumber": "266", "addr:street": "Carrer de Muntaner", "brand": "Dia", "brand:wikidata": "Q925132", "name": "Dia", "opening_hours": "Mo-Sa 09:00-21:00", "shop": "supermarket"}}, {"type": "node", "id": 11061218505, "lat": 41.3988815, "lon": 2.1492897, "tags": {"name": "Lidl", "shop": "supermarket"}}, {"type": "node", "id": 11132571475, "lat": 41.4067088, "lon": 2.1509987, "tags": {"check_date": "2023-08-21", "dog": "no", "name": "Supermercat express", "opening_hours": "09:00-23:00", "payment:maestro": "yes", "payment:mastercard": "yes", "payment:visa": "yes", "shop": "supermarket"}}, {"type": "node", "id": 11139240257, "lat": 41.4054162, "lon": 2.1347741, "tags": {"brand": "Alcampo", "brand:wikidata": "Q2832081", "name": "Alcampo", "shop": "supermarket"}}, {"type": "node", "id": 11327794123, "lat": 41.3870415, "lon": 2.1450308, "tags": {"addr:city": "Barcelona", "addr:country": "ES", "addr:housenumber": "259", "addr:postcode": "08029", "addr:street": "Cal\u00e0bria", "name": "Prima prix", "phone": "+34917111234", "shop": "supermarket", "website": "https://primaprix.eu/es/"}}, {"type": "node", "id": 11329557269, "lat": 41.3937344, "lon": 2.1420149, "tags": {"name": "Alcampo", "shop": "supermarket"}}, {"type": "node", "id": 11396240869, "lat": 41.4090956, "lon": 2.1519429, "tags": {"name": "Caprabo", "shop": "supermarket"}}, {"type": "node", "id": 11445935669, "lat": 41.394403, "lon": 2.127381, "tags": {"name": "Aldi", "shop": "supermarket"}}, {"type": "node", "id": 11581562469, "lat": 41.3859929, "lon": 2.1433604, "tags": {"name": "Plusfr\u00e9sc", "shop": "supermarket"}}, {"type": "node", "id": 11670176324, "lat": 41.4094308, "lon": 2.148175, "tags": {"addr:city": "Barcelona", "addr:housenumber": "40", "addr:postcode": "08023", "addr:street": "Avinguda de Vallcarca", "brand": "Condis", "brand:wikidata": "Q57417581", "check_date:opening_hours": "2025-05-18", "name": "Condis", "opening_hours": "Mo-Su 09:00-23:00", "payment:cash": "yes", "payment:credit_cards": "yes", "shop": "supermarket"}}, {"type": "node", "id": 12248645416, "lat": 41.3958701, "lon": 2.1244879, "tags": {"addr:housenumber": "58-54", "addr:street": "Carrer de Bonaplata", "brand": "Condis", "brand:wikidata": "Q57417581", "check_date": "2024-10-13", "name": "Condis", "payment:cash": "yes", "payment:credit_cards": "yes", "payment:debit_cards": "yes", "shop": "supermarket", "wheelchair": "yes"}}, {"type": "node", "id": 12694792062, "lat": 41.4071231, "lon": 2.1386697, "tags": {"addr:city": "Barcelona", "addr:housenumber": "418", "addr:postcode": "08022", "addr:street": "Carrer de Balmes", "brand": "Supercor", "brand:wikidata": "Q6135841", "name": "Supercor", "opening_hours": "Mo-Su 07:00-01:00", "operator": "SuperCor", "phone": "932 54 78 01", "shop": "supermarket"}}, {"type": "way", "id": 650093767, "nodes": [6100104221, 6100104268, 6100104265, 6100104270, 6100104221], "tags": {"brand": "Caprabo", "brand:wikidata": "Q1980781", "brand:wikipedia": "en:Caprabo", "building": "retail", "building:levels": "3", "layer": "-1", "location": "underground", "name": "Caprabo", "name:ca": "Caprabo", "opening_hours": "Mo-Su 09:00-14:30", "shop": "supermarket"}}]}